GSAT0101 (PRN E11)      
1 37846U 11060A   21137.89232978 -.00000074  00000-0  00000+0 0  9999
2 37846  56.8220  32.1163 0003998  12.0904 347.9586  1.70475305 59608
GSAT0102 (PRN E12)      
1 37847U 11060B   21138.11374639 -.00000074  00000-0  00000+0 0  9997
2 37847  56.8230  32.1097 0004492 343.8281 198.3720  1.70475516 59601
GSAT0103 (PRN E19)      
1 38857U 12055A   21137.93360163  .00000082  00000-0  00000+0 0  9998
2 38857  55.0390 152.5762 0005254 269.3191  90.6571  1.70473770 53507
GSAT0104 (PRN E20)      
1 38858U 12055B   21137.90440599  .00000082  00000-0  00000+0 0  9998
2 38858  55.0393 152.5785 0002907 272.0496  87.9536  1.70474101 53472
GSAT0201 (PRN E18)      
1 40128U 14050A   21137.04389515 -.00000080  00000-0  00000-0 0  9993
2 40128  50.4868 348.0736 1650401 110.3016 268.1978  1.85518863 43865
GSAT0202 (PRN E14)      
1 40129U 14050B   21134.07234787 -.00000096  00000-0  00000-0 0  9991
2 40129  50.5191 347.2399 1647777 111.0086 267.3996  1.85519631 45978
GSAT0203 (PRN E26)      
1 40544U 15017A   21135.91409726 -.00000078  00000-0  00000-0 0  9997
2 40544  56.6155  32.2581 0002360 285.5303  74.4827  1.70474571 37520
GSAT0204 (PRN E22)      
1 40545U 15017B   21137.34057780 -.00000075  00000-0  00000-0 0  9993
2 40545  56.6221  32.2297 0001517 266.2565  93.7654  1.70475617   599
GSAT0205 (PRN E24)      
1 40889U 15045A   21137.69546674 -.00000008  00000-0  00000-0 0  9994
2 40889  55.8992 272.8883 0004091  23.9439 336.0590  1.70475562 35361
GSAT0206 (PRN E30)      
1 40890U 15045B   21138.50153453 -.00000008  00000-0  00000+0 0  9995
2 40890  55.8973 272.8623 0002264  19.1025 340.8910  1.70475635 35407
GSAT0209 (PRN E09)      
1 41174U 15079A   21136.32947175  .00000078  00000-0  00000-0 0  9995
2 41174  55.0540 152.3207 0005767 303.1057  56.8761  1.70473519 33109
GSAT0208 (PRN E08)      
1 41175U 15079B   21137.72231828  .00000081  00000-0  00000+0 0  9995
2 41175  55.0531 152.2817 0004984 302.2552  57.7323  1.70473554 33705
GSAT0211 (PRN E02)      
1 41549U 16030A   21137.84332689 -.00000008  00000-0  00000+0 0  9998
2 41549  56.0406 272.7719 0002710 332.9862  26.9839  1.70475286 31005
GSAT0210 (PRN E01)      
1 41550U 16030B   21138.13614198 -.00000008  00000-0  00000+0 0  9991
2 41550  56.0412 272.7654 0001875 285.0626  74.9014  1.70475438 31006
GSAT0207 (PRN E07)      
1 41859U 16069A   21136.03553740  .00000077  00000-0  00000-0 0  9993
2 41859  54.7129 152.6085 0005851 292.2206  67.7558  1.70473441 27723
GSAT0212 (PRN E03)      
1 41860U 16069B   21138.23529559  .00000082  00000-0  00000+0 0  9995
2 41860  54.7112 152.5458 0004554 308.2607  51.7350  1.70473418 28012
GSAT0213 (PRN E04)      
1 41861U 16069C   21138.01438759  .00000082  00000-0  00000+0 0  9993
2 41861  54.7137 152.5564 0005367 275.7251  84.2502  1.70473512 28008
GSAT0214 (PRN E05)      
1 41862U 16069D   21137.57482844  .00000080  00000-0  00000-0 0  9997
2 41862  54.7114 152.5636 0004488 279.6492  80.3364  1.70473555 27994
GSAT0215 (PRN E21)      
1 43055U 17079A   21137.47901597 -.00000008  00000-0  00000-0 0  9996
2 43055  56.0179 272.6202 0001253 275.4099  84.5594  1.70474543 21334
GSAT0216 (PRN E25)      
1 43056U 17079B   21136.59836356 -.00000010  00000-0  00000-0 0  9992
2 43056  56.0174 272.6440 0003030 277.5004  82.4456  1.70474648 21338
GSAT0217 (PRN E27)      
1 43057U 17079C   21137.40507777 -.00000008  00000-0  00000+0 0  9992
2 43057  56.0143 272.6223 0002701 296.5318  63.4239  1.70474582 21332
GSAT0218 (PRN E31)      
1 43058U 17079D   21136.45190959 -.00000010  00000-0  00000-0 0  9991
2 43058  56.0167 272.6457 0003482 271.5989  88.3410  1.70474644 21349
GSAT0221 (PRN E15)      
1 43564U 18060A   21136.35053896 -.00000076  00000-0  00000-0 0  9993
2 43564  57.0007  31.9598 0003516 301.5512  58.4545  1.70475563 17490
GSAT0222 (PRN E33)      
1 43565U 18060B   21134.81062289 -.00000081  00000-0  00000-0 0  9995
2 43565  57.0022  32.0016 0003598 312.4616  47.5462  1.70475611 17515
GSAT0219 (PRN E36)      
1 43566U 18060C   21136.20437623 -.00000077  00000-0  00000-0 0  9994
2 43566  57.0038  31.9655 0003274 316.5215  43.4927  1.70475572 17518
GSAT0220 (PRN E13)      
1 43567U 18060D   21138.18393955 -.00000074  00000-0  00000+0 0  9999
2 43567  57.0039  31.9127 0003209 309.8240  50.1873  1.70475464 17521
